{
"type": "FeatureCollection",
"name": "pathway",
"crs": { "type": "name", "properties": { "name": "urn:ogc:def:crs:OGC:1.3:CRS84" } },
"features": [
{ "type": "Feature", "properties": { "id": "1", "nazwa": "droga", "layer": "drogi_zoo", "path": "C:\\Users\\tomas\\Desktop\\Mapa nowe zoo Poznań\\Mapy\\Mapa\\Warstwy\\drogi_zoo.shp" }, "geometry": { "type": "MultiLineString", "coordinates": [ [ [ 16.999249058030344, 52.397101826791321 ], [ 16.999749205709154, 52.397035099819746 ], [ 17.000000203718191, 52.396969910848874 ], [ 17.000161786548993, 52.396927853024408 ], [ 17.00028036960504, 52.3969067439753 ], [ 17.000387197115707, 52.396898477841063 ], [ 17.00049143530682, 52.396901950521851 ], [ 17.000597018043901, 52.396914710136329 ], [ 17.00083557563908, 52.396955533305864 ] ] ] } },
{ "type": "Feature", "properties": { "id": "1", "nazwa": "ruch pieszy", "layer": "ruch_pieszy_zoo", "path": "C:/Users/tomas/Desktop/Mapa nowe zoo Poznań/Mapy/Mapa/Warstwy/ruch_pieszy_zoo.shp" }, "geometry": { "type": "MultiLineString", "coordinates": [ [ [ 16.995007627069857, 52.399404763567084 ], [ 16.99455355255947, 52.399461188941196 ], [ 16.994378988445636, 52.399478940729381 ], [ 16.994312487830843, 52.399509372349627 ], [ 16.994264690513962, 52.399595595159703 ], [ 16.994309826893875, 52.399889489316635 ], [ 16.994428122273863, 52.400238053034975 ], [ 16.994458931913382, 52.400359551219111 ] ], [ [ 16.994891273994277, 52.39763194519346 ], [ 16.995166357618324, 52.397849780731782 ], [ 16.995270686015161, 52.397945362708711 ], [ 16.995313893462523, 52.398039907781047 ], [ 16.995324681530636, 52.398110067605003 ], [ 16.995332208860759, 52.398128903749623 ], [ 16.995409461685213, 52.398208735734485 ], [ 16.995201276891219, 52.398240642320019 ] ], [ [ 16.99534794943672, 52.400275875782242 ], [ 16.995341310970066, 52.400191474396102 ], [ 16.995399216878027, 52.400147835744249 ], [ 16.995524145217473, 52.400127644320527 ], [ 16.995716331233226, 52.400161688366893 ] ], [ [ 16.996131038766162, 52.401315962468573 ], [ 16.995847665982737, 52.400550496995486 ], [ 16.995791062798428, 52.400397800766719 ], [ 16.995946695107602, 52.4003576264789 ], [ 16.996113558891931, 52.400267543369111 ], [ 16.996259618255216, 52.40013033616836 ], [ 16.996403537644312, 52.400030599348945 ], [ 16.99657080873655, 52.399993140016839 ], [ 16.996695690942367, 52.399969532905004 ], [ 16.996819981916911, 52.39995248158553 ], [ 16.997078334436527, 52.399916925150279 ] ], [ [ 16.996517006715589, 52.402257928435844 ], [ 16.996567996728455, 52.402274982835948 ], [ 16.996624640090644, 52.402293841991877 ], [ 16.996927755570734, 52.40234817952458 ], [ 16.997059263533068, 52.402386206275104 ] ], [ [ 16.996293368665093, 52.401754315753251 ], [ 16.996314725191546, 52.401811972448726 ], [ 16.996323565661573, 52.401808344666946 ], [ 16.996449381089469, 52.401757770277399 ], [ 16.996306346681344, 52.401312189032886 ], [ 16.996131038766162, 52.401315962468573 ], [ 16.996293368665093, 52.401754315753251 ], [ 16.996161381518267, 52.401759363390525 ], [ 16.996102511695806, 52.401753957918579 ], [ 16.996038702127695, 52.401737495433451 ], [ 16.996007365777082, 52.40171834556709 ], [ 16.995966911965695, 52.401708934973072 ], [ 16.995839467252644, 52.401707853110992 ], [ 16.995609399557068, 52.401722569796959 ], [ 16.995588146157981, 52.401717802051145 ], [ 16.995567226618416, 52.401702426519101 ], [ 16.995476597425483, 52.401479625995584 ], [ 16.995415725336954, 52.401330275089386 ] ], [ [ 16.996314725191546, 52.401811972448726 ], [ 16.996395701647916, 52.402030471191402 ] ], [ [ 16.997755985537893, 52.402182055741655 ], [ 16.998260916291407, 52.401946050430638 ], [ 16.998452715203687, 52.401876893699921 ], [ 16.998640151278874, 52.401787155453775 ], [ 16.998915078881922, 52.401661751350382 ], [ 16.99914422064542, 52.40153098428344 ], [ 16.999205216110468, 52.401479669309836 ], [ 16.999215610548887, 52.401470940791363 ], [ 16.999271150762112, 52.401406941211384 ], [ 16.999298798099211, 52.401348405735234 ], [ 16.999355652993412, 52.401239096394569 ], [ 16.999433602894431, 52.401017803568173 ], [ 16.999410856813729, 52.40092252717119 ], [ 16.99940012196361, 52.400773037733615 ], [ 16.999375579833302, 52.400281975510673 ], [ 16.999358829829593, 52.399989192711772 ], [ 16.999372942842932, 52.399911269929241 ], [ 16.999407953326568, 52.399836219353304 ], [ 16.999531821486389, 52.399740726499111 ], [ 16.999753034514743, 52.399593184363255 ], [ 16.999760246665556, 52.399524768786499 ], [ 16.999752840520571, 52.399464200783136 ], [ 16.999695351256975, 52.39937957941379 ], [ 16.9995257406575, 52.399215348137126 ], [ 16.999518459823687, 52.3991455179589 ], [ 16.999517503400011, 52.399137406770379 ], [ 16.999523893158223, 52.399103425996088 ], [ 16.999525230693955, 52.399096612860916 ], [ 16.999566787955704, 52.399052344106416 ], [ 16.999621690095779, 52.399025120832917 ], [ 16.999664889925384, 52.399016048119037 ], [ 16.999682108640886, 52.399012471959608 ], [ 16.999796462095645, 52.398997228103262 ], [ 16.999839755368839, 52.398986088185644 ], [ 17.000000121471885, 52.398899577404968 ], [ 17.000161738661191, 52.39885041451636 ] ], [ [ 16.997173305825626, 52.402066407824123 ], [ 16.997081883312056, 52.402305639656625 ], [ 16.997059263533068, 52.402386206275104 ] ], [ [ 16.999238344001832, 52.397865093920991 ], [ 16.999321836895739, 52.397829900058511 ], [ 16.999351234595576, 52.397807371966643 ], [ 16.999374651402466, 52.397774039227166 ], [ 16.999374267820844, 52.397750017565876 ], [ 16.999337067157654, 52.39770126750475 ], [ 16.999281895546964, 52.397669482519881 ], [ 16.999238310456096, 52.39766109934088 ], [ 16.999192531220839, 52.39766221310925 ], [ 16.99910154115847, 52.397671375939609 ] ], [ [ 16.999753034514743, 52.399593184363255 ], [ 16.99990989987495, 52.399522354717149 ], [ 16.999995948435977, 52.399498986340461 ], [ 17.000021362382071, 52.399493030379567 ], [ 17.000103317743342, 52.399495136868232 ], [ 17.000168677478953, 52.399516300516609 ], [ 17.000330699670716, 52.399786626783069 ] ], [ [ 17.00083557563908, 52.396955533305864 ], [ 17.000972213388938, 52.397013160540219 ], [ 17.001081976592559, 52.397089581148251 ], [ 17.001199433038046, 52.397184480436572 ], [ 17.001406726270108, 52.397377049547693 ], [ 17.00153189810381, 52.39756804967066 ], [ 17.001643628409788, 52.397633529780762 ], [ 17.001747464710174, 52.397675220921073 ], [ 17.001853197455379, 52.397746535745981 ], [ 17.002067434925348, 52.397977537375134 ], [ 17.002083449591151, 52.397994088060351 ], [ 17.002219540216064, 52.398135532744092 ], [ 17.002462160440484, 52.398252604149704 ], [ 17.00254059590516, 52.398290267447265 ], [ 17.002558627411819, 52.398223113921127 ], [ 17.002485601143725, 52.398156849801438 ], [ 17.002425680334731, 52.39812597542052 ], [ 17.002317162540425, 52.39803815422006 ], [ 17.002316519686126, 52.397889645141994 ], [ 17.002365070414069, 52.397784871111476 ], [ 17.002598599414497, 52.397659415548027 ] ], [ [ 17.003210868504855, 52.401655709946219 ], [ 17.002985193552586, 52.401648119057491 ], [ 17.002939134193571, 52.401655345786935 ], [ 17.002896886229973, 52.401675858725042 ], [ 17.002758426854044, 52.401902337279907 ], [ 17.002737056071329, 52.401939213074392 ], [ 17.002710747239927, 52.401945424333832 ], [ 17.002583187241637, 52.40192734832366 ], [ 17.002420685862241, 52.401898248032609 ], [ 17.00158876931906, 52.401749536769792 ], [ 17.001544122754929, 52.401741766138656 ], [ 17.001200249140066, 52.401681444402456 ], [ 17.001051435917908, 52.401655361997499 ], [ 17.000941005611161, 52.401645489043482 ], [ 17.000871023986956, 52.401654918702079 ], [ 17.000776969763969, 52.401689395352733 ] ], [ [ 17.002083449591151, 52.397994088060351 ], [ 17.002316519686126, 52.397889645141994 ] ], [ [ 17.00254059590516, 52.398290267447265 ], [ 17.00269516510075, 52.39836447564867 ], [ 17.002968519436678, 52.398494567692879 ], [ 17.003318042747534, 52.398709324476798 ], [ 17.003483263482348, 52.398785420529769 ], [ 17.003577043545175, 52.398857791052357 ], [ 17.003597364695626, 52.398873424886894 ], [ 17.003602014552516, 52.398877910712066 ], [ 17.003613845391691, 52.398889443562737 ], [ 17.003638658795897, 52.398961908176794 ], [ 17.003632795866888, 52.399000575159512 ], [ 17.003597515214619, 52.399042702739294 ], [ 17.00354069165634, 52.399079969153995 ], [ 17.003448603786438, 52.399113401779672 ], [ 17.003356489667329, 52.399124617630555 ], [ 17.003286104126914, 52.399117042381505 ], [ 17.003167113723627, 52.399078694356135 ], [ 17.002997485358222, 52.399005761384586 ], [ 17.002886667568454, 52.398972048394064 ], [ 17.002824193816892, 52.398971622231947 ], [ 17.002770746067828, 52.398979713405893 ], [ 17.002593961253567, 52.399065230854461 ], [ 17.002514964800735, 52.399111566181361 ], [ 17.00207190320387, 52.39938866063013 ], [ 17.001249823589625, 52.399852904076702 ] ], [ [ 17.003319986682182, 52.401238772697745 ], [ 17.003234601465675, 52.401358125326318 ], [ 17.003186621771565, 52.401453465163101 ], [ 17.003183550706602, 52.40149541728254 ], [ 17.003203219480906, 52.401590640892564 ], [ 17.003210868504855, 52.401655709946219 ], [ 17.003246361428609, 52.4017652322269 ], [ 17.003270053082922, 52.401885348426831 ], [ 17.003251319600164, 52.401955008608745 ], [ 17.003232049427616, 52.402017014450948 ], [ 17.003084826207004, 52.402206378178199 ], [ 17.00303769053394, 52.402237422012078 ], [ 17.00298625057955, 52.402243298624491 ], [ 17.002929032871201, 52.402240352979597 ], [ 17.002782437835922, 52.402217188480023 ], [ 17.00165770568023, 52.402039783620651 ], [ 17.001413961502568, 52.402002472399545 ], [ 17.001213011131025, 52.401971640886906 ], [ 17.001033019318019, 52.4019358568165 ], [ 17.000925346720923, 52.401881238201568 ], [ 17.000844994442286, 52.401814309539958 ], [ 17.000794800247249, 52.401740605499334 ], [ 17.000776969763969, 52.401689395352733 ], [ 17.000773710809614, 52.401680165895826 ], [ 17.000762080497161, 52.401608913091913 ], [ 17.000770544861023, 52.401542047720397 ], [ 17.000785227922638, 52.401425458361444 ], [ 17.000758465831197, 52.401347383634842 ], [ 17.000623414229562, 52.401264148965971 ], [ 17.000000099080118, 52.400788859382423 ], [ 16.999949529882507, 52.400772263301178 ], [ 16.9998199167126, 52.400773667460378 ], [ 16.999726245221495, 52.400796456977076 ], [ 16.999634540552258, 52.400840776423735 ], [ 16.999497466064483, 52.400938834115564 ], [ 16.999433602894431, 52.401017803568173 ] ], [ [ 17.003577043545175, 52.398857791052357 ], [ 17.003708494309592, 52.398835097034201 ], [ 17.003767655755503, 52.398827461730143 ], [ 17.003859111883365, 52.398830805437093 ], [ 17.003947702138085, 52.398816201738299 ] ], [ [ 17.003602014552516, 52.398877910712066 ], [ 17.003698698527163, 52.398879454025412 ], [ 17.003747294110671, 52.398874608412896 ], [ 17.003785953524595, 52.398861859727148 ], [ 17.003831354595128, 52.398846346683953 ], [ 17.003859111883365, 52.398830805437093 ] ], [ [ 17.006016191404505, 52.399499799441188 ], [ 17.006016191404505, 52.399499799441188 ], [ 17.005625843685436, 52.399394273838531 ], [ 17.005278402484436, 52.399318793010124 ], [ 17.005023435947194, 52.399246940977285 ], [ 17.004576462015432, 52.399092965325671 ], [ 17.004247582088656, 52.398954923726706 ], [ 17.003951449285363, 52.398817884027075 ], [ 17.003947702138085, 52.398816201738299 ] ], [ [ 17.006016191404505, 52.399499799441188 ], [ 17.006083054368002, 52.399438776042189 ], [ 17.006141881508711, 52.399379865637663 ], [ 17.006229721767074, 52.399303635705792 ], [ 17.006397728862662, 52.399177849614276 ], [ 17.006559212035963, 52.399098904182303 ] ], [ [ 17.006279867801389, 52.401857011375348 ], [ 17.006517872165208, 52.401705332697787 ], [ 17.006718834912757, 52.401543494702608 ], [ 17.00703749653654, 52.401246566162186 ], [ 17.007308440891681, 52.400951170757651 ], [ 17.007442192362337, 52.400841625167899 ], [ 17.007527711061485, 52.400800613303637 ], [ 17.00759240206726, 52.400784524590975 ], [ 17.007715681922409, 52.4007866029092 ], [ 17.008016096623717, 52.400878103381871 ], [ 17.008598853634567, 52.401064125416568 ], [ 17.008832115289021, 52.401138302235857 ], [ 17.009006874585452, 52.401176054971359 ], [ 17.009147887836505, 52.401182747865107 ], [ 17.009266076169094, 52.401177093523614 ], [ 17.009354478019421, 52.401163471968133 ], [ 17.009845370645667, 52.401022072338321 ], [ 17.010023261259818, 52.4009902594454 ], [ 17.010256381220746, 52.400963063880937 ], [ 17.010330607578155, 52.400960535909114 ], [ 17.010447091259405, 52.400960068458097 ], [ 17.010708560456155, 52.40095970292041 ], [ 17.010894160098609, 52.400965705123134 ], [ 17.010991791321942, 52.400965909213028 ], [ 17.011070440695232, 52.400969661369565 ] ], [ [ 17.008281149123814, 52.400311784230134 ], [ 17.008832083619687, 52.400495739802892 ], [ 17.009281494744258, 52.400638677028674 ], [ 17.009511547652096, 52.400682847026935 ], [ 17.009734887741455, 52.400729152130417 ] ], [ [ 17.008281149123814, 52.400311784230134 ], [ 17.00863618727788, 52.400094795377349 ], [ 17.008905800587897, 52.399962442941948 ], [ 17.009139579575994, 52.399868252222383 ], [ 17.009220526485684, 52.399824193971952 ], [ 17.0093169525835, 52.399775989139016 ], [ 17.009472690331393, 52.399697212804952 ], [ 17.009594360228586, 52.399640258618469 ] ], [ [ 17.011936698583664, 52.402163495633573 ], [ 17.012010911286488, 52.402216911663409 ], [ 17.012042822071574, 52.402298668066081 ], [ 17.012042360788595, 52.402678494695678 ], [ 17.012028117618197, 52.402782680330851 ], [ 17.011994929073058, 52.40283725785261 ], [ 17.011370234968165, 52.403128330872839 ] ] ] } },
{ "type": "Feature", "properties": { "id": "1", "nazwa": "droga", "layer": "drogi_zoo", "path": "C:\\Users\\tomas\\Desktop\\Mapa nowe zoo Poznań\\Mapy\\Mapa\\Warstwy\\drogi_zoo.shp" }, "geometry": { "type": "MultiLineString", "coordinates": [ ] } },
{ "type": "Feature", "properties": { "id": "1", "nazwa": "droga", "layer": "drogi_zoo", "path": "C:\\Users\\tomas\\Desktop\\Mapa nowe zoo Poznań\\Mapy\\Mapa\\Warstwy\\drogi_zoo.shp" }, "geometry": { "type": "MultiLineString", "coordinates": [ [ [ 16.991619518215643, 52.401348486436667 ], [ 16.992242530610454, 52.400915641012183 ], [ 16.992384125755841, 52.400666561655392 ], [ 16.992458310585612, 52.400564565581092 ], [ 16.992484599403692, 52.400542615970934 ], [ 16.992551266262101, 52.400492839834143 ], [ 16.992636434697094, 52.400463075772201 ], [ 16.992814857418402, 52.400445688881966 ], [ 16.992908756407381, 52.400440627756247 ], [ 16.993044074425352, 52.400433391730481 ], [ 16.99311292168106, 52.400452190018463 ], [ 16.993149561908218, 52.400474308962615 ], [ 16.99317113336193, 52.400501208901538 ], [ 16.993189509583392, 52.400549911090621 ], [ 16.993194650069828, 52.400621324367194 ], [ 16.993251648277322, 52.400612848068867 ], [ 16.993495424831735, 52.400600527431223 ], [ 16.993697192854768, 52.400768641329186 ], [ 16.993720543953653, 52.400785497593347 ], [ 16.99378931163865, 52.400835235032368 ], [ 16.993812692256718, 52.400874128177406 ], [ 16.993673223109738, 52.401021428125816 ], [ 16.993542677388287, 52.401108166887965 ], [ 16.993396527013768, 52.401185556161465 ], [ 16.993327493093787, 52.401248604362536 ], [ 16.993234412639953, 52.401400828910326 ], [ 16.993171044737277, 52.401517220368738 ], [ 16.993113075727212, 52.401602132961266 ], [ 16.993064403966681, 52.401666875958306 ], [ 16.992911252510567, 52.401613366468894 ], [ 16.99276195470916, 52.401575392682687 ], [ 16.992607787857768, 52.401541023725173 ], [ 16.992516996481861, 52.401526169737508 ], [ 16.992428670541912, 52.401521791122256 ], [ 16.992358940436343, 52.401522405461222 ], [ 16.992286467518941, 52.401528369832413 ], [ 16.992223431261511, 52.401537012925886 ], [ 16.992157582727945, 52.401548443957672 ] ], [ [ 16.992242530610454, 52.400915641012183 ], [ 16.992357923556511, 52.400835571982256 ], [ 16.992484928172995, 52.400768562153679 ], [ 16.992707105362076, 52.400694354186371 ], [ 16.993044226131254, 52.400643864435089 ], [ 16.993194650069828, 52.400621324367194 ] ], [ [ 16.993064403966681, 52.401666875958306 ], [ 16.993282207475179, 52.401825189046797 ], [ 16.993456545224255, 52.401923850109455 ], [ 16.993548224537648, 52.401971008507374 ], [ 16.993811025349704, 52.402074318967266 ], [ 16.993926957510048, 52.402095804873447 ], [ 16.994078277535348, 52.402111954984363 ], [ 16.994309945109517, 52.402126860143504 ], [ 16.994448733514801, 52.402121030540286 ], [ 16.994525443410321, 52.402105962403141 ], [ 16.994554294087468, 52.40205995069703 ], [ 16.994521209554069, 52.401936705029932 ], [ 16.994470260371571, 52.401746957063402 ], [ 16.994258287729625, 52.401139112739934 ], [ 16.994226436474893, 52.401082716639515 ], [ 16.994117165905948, 52.401018170725784 ], [ 16.993812692256718, 52.400874128177406 ], [ 16.993862494439938, 52.40105342344831 ], [ 16.993913316723315, 52.401313955869554 ], [ 16.994022863987574, 52.401719216322391 ], [ 16.99400954899173, 52.40179553305861 ], [ 16.993922686272715, 52.401856120309112 ], [ 16.993807071921339, 52.40190866408804 ], [ 16.993548224537648, 52.401971008507374 ] ], [ [ 16.994537345237937, 52.400352247224482 ], [ 16.994564802433789, 52.400512004834283 ], [ 16.994627924849329, 52.400682981084415 ], [ 16.994728906321537, 52.400891386979779 ], [ 16.994772722642683, 52.400972540802002 ], [ 16.994933355232192, 52.401269654475236 ], [ 16.995004635231048, 52.401442387890285 ], [ 16.995020317603597, 52.401761327161495 ], [ 16.995055831943993, 52.401944516910568 ], [ 16.995090481001725, 52.402004108288288 ], [ 16.995168425085087, 52.402075317400865 ], [ 16.995262776173746, 52.402125218109745 ], [ 16.995333819850323, 52.402157274165781 ], [ 16.995444728516997, 52.402179302974659 ], [ 16.995525656146611, 52.402184723118118 ], [ 16.995635542729463, 52.402183888523062 ], [ 16.995741358997858, 52.40217228140834 ], [ 16.995946467278991, 52.402130787484609 ], [ 16.996199459810583, 52.402074274890019 ], [ 16.996395701647916, 52.402030471191402 ], [ 16.996573418463985, 52.402006050961226 ], [ 16.996696899761005, 52.40199726089832 ], [ 16.996821697061446, 52.402004862898679 ], [ 16.997173305825626, 52.402066407824123 ], [ 16.997755985537893, 52.402182055741655 ], [ 16.998380480485945, 52.402293372100537 ], [ 16.998617982370153, 52.40232887493066 ], [ 16.998811621003373, 52.402352301551026 ], [ 16.999010118070817, 52.402356112291415 ], [ 16.999208074138394, 52.402345882214377 ], [ 16.999482811182844, 52.402289730738318 ], [ 16.999743330885959, 52.402232528496228 ], [ 16.999995699070372, 52.402199472716916 ], [ 17.000167160808928, 52.402193020053431 ], [ 17.00028025168023, 52.402192864970608 ], [ 17.000745431281974, 52.402211258738475 ], [ 17.001200942214304, 52.402271131385945 ], [ 17.002261120384553, 52.402494130475723 ], [ 17.002451403226743, 52.402520282658969 ], [ 17.002579409979216, 52.402521996479457 ], [ 17.002805702347597, 52.402516016951473 ], [ 17.002986934660616, 52.402501630315264 ], [ 17.003185192636117, 52.402458658940205 ], [ 17.003495003699726, 52.402355150446105 ], [ 17.003572508048848, 52.402312656853752 ], [ 17.003780066300934, 52.402190690589649 ], [ 17.003971773241524, 52.402064768529158 ], [ 17.004096616523078, 52.401980170677398 ], [ 17.00417777388191, 52.401912104255132 ], [ 17.004210707086948, 52.401876412857057 ], [ 17.004239271323978, 52.401820230308203 ], [ 17.004240488094762, 52.40174766578523 ], [ 17.004239612485652, 52.401695393344731 ], [ 17.004238814356512, 52.401657693193378 ], [ 17.004217941084178, 52.401598876884457 ], [ 17.004170939376049, 52.401532513716944 ], [ 17.004109362485426, 52.401466533988092 ], [ 17.004018261904246, 52.401409589695824 ], [ 17.003957735157936, 52.401392017672528 ], [ 17.003319986682182, 52.401238772697745 ], [ 17.003079941636205, 52.401161951872602 ], [ 17.002788281346358, 52.401049359872303 ], [ 17.002450601927336, 52.40089758306388 ], [ 17.002184212787512, 52.400726952850725 ], [ 17.002110349794908, 52.400675875002307 ], [ 17.002350461314048, 52.400741365966574 ], [ 17.002919033092773, 52.400960905556026 ], [ 17.003295194225789, 52.401074655110008 ], [ 17.003626021864886, 52.401120988901468 ], [ 17.004024062991054, 52.401157303865958 ], [ 17.00432545855854, 52.401184610067723 ], [ 17.004685721855406, 52.401249966474957 ], [ 17.004942796977009, 52.401320955292476 ], [ 17.005567997232902, 52.401553670352158 ], [ 17.006279867801389, 52.401857011375348 ], [ 17.006461490953765, 52.401951278732902 ], [ 17.006752344695212, 52.402108190473456 ], [ 17.006995011763049, 52.402179291529215 ], [ 17.007456637320718, 52.402332065604725 ], [ 17.008108432499942, 52.402461419701552 ], [ 17.008782496689914, 52.402697189650965 ], [ 17.009450004310029, 52.402984023535353 ], [ 17.00956155833617, 52.403024578406473 ], [ 17.00978473449263, 52.403100921930381 ], [ 17.010043965917404, 52.40313748717017 ], [ 17.010264977561807, 52.403127986541044 ], [ 17.01052217795149, 52.403108391339494 ], [ 17.010895799638437, 52.4030440740435 ], [ 17.011002332661739, 52.40301321727415 ] ], [ [ 16.995743871358986, 52.400238608232932 ], [ 16.99534794943672, 52.400275875782242 ], [ 16.994845108704496, 52.400323200627447 ], [ 16.994537345237937, 52.400352247224482 ], [ 16.994458931913382, 52.400359551219111 ], [ 16.994029927514195, 52.400399940663121 ], [ 16.993500946229744, 52.400449694316691 ], [ 16.993448434213725, 52.400469489966191 ], [ 16.993438002183201, 52.400479026846838 ], [ 16.993428799256183, 52.400506843327982 ], [ 16.993433171702893, 52.400543345087961 ], [ 16.993495424831735, 52.400600527431223 ], [ 16.994010294625543, 52.400563666156621 ], [ 16.994060060342079, 52.400559024261653 ], [ 16.994313170265094, 52.40053543741211 ], [ 16.994564802433789, 52.400512004834283 ], [ 16.995791062798428, 52.400397800766719 ], [ 16.995743871358986, 52.400238608232932 ], [ 16.995716331233226, 52.400161688366893 ], [ 16.995587319377478, 52.399802780517426 ], [ 16.995329599659861, 52.399084879506887 ], [ 16.995302052772651, 52.399008139295404 ], [ 16.995255530092276, 52.398743452966805 ], [ 16.995222127521657, 52.398341823819884 ], [ 16.995201276891219, 52.398240642320019 ], [ 16.995180401901376, 52.398140000068025 ], [ 16.995102674069088, 52.397914989439677 ], [ 16.994901731414615, 52.397651010972822 ], [ 16.994891273994277, 52.39763194519346 ], [ 16.99475244508222, 52.397418489806249 ], [ 16.994713317446987, 52.397272925249389 ], [ 16.994716508866503, 52.397140940847308 ], [ 16.994750435477389, 52.397005610359578 ], [ 16.994870248692177, 52.396847182311255 ], [ 16.994978479476679, 52.396759343970395 ], [ 16.995028703537436, 52.396718551773368 ], [ 16.995263144937002, 52.396597056491345 ], [ 16.995491559551997, 52.39650469049198 ], [ 16.995852057847568, 52.396443706183469 ], [ 16.996766330701302, 52.39636872378393 ], [ 16.997004502273764, 52.3963757290635 ], [ 16.997274046872604, 52.396426978574333 ], [ 16.997639026684652, 52.396581931556057 ], [ 16.998385055142066, 52.396959294763221 ], [ 16.998558063954565, 52.397035169962024 ], [ 16.998820949006799, 52.397080996386997 ], [ 16.999034631350888, 52.397099635400131 ], [ 16.999249058030344, 52.397101826791321 ], [ 16.999158865064434, 52.397161641884288 ], [ 16.999052739600796, 52.397251858203177 ], [ 16.998983778481168, 52.397349359609784 ], [ 16.99894745571428, 52.39745343991865 ], [ 16.99910154115847, 52.397671375939609 ], [ 16.999238344001832, 52.397865093920991 ], [ 16.99927994188576, 52.397923902290081 ], [ 16.999324138751035, 52.397977268031617 ], [ 16.999604523708644, 52.398289714410872 ], [ 17.00000013855789, 52.398700890458862 ], [ 17.000081102551167, 52.398780152512209 ], [ 17.000161738661191, 52.39885041451636 ], [ 17.000600043549184, 52.39920222798677 ], [ 17.000921334574535, 52.399462385875474 ], [ 17.001249823589625, 52.399852904076702 ], [ 17.001466868514651, 52.400126048129231 ], [ 17.001871465994672, 52.400511645377961 ], [ 17.002110349794908, 52.400675875002307 ] ], [ [ 16.998558063954565, 52.397035169962024 ], [ 16.998714653217057, 52.397181463191323 ], [ 16.99894745571428, 52.39745343991865 ] ], [ [ 17.006441805008077, 52.398868824865211 ], [ 17.006438697110354, 52.398937759741841 ], [ 17.006451832429445, 52.398992127810828 ], [ 17.006495680363255, 52.399046924016865 ], [ 17.006538257429241, 52.399084249568091 ], [ 17.006559212035963, 52.399098904182303 ], [ 17.006615519693167, 52.399138260199059 ], [ 17.006683268324426, 52.399204342739978 ], [ 17.006746616514537, 52.399231045350241 ], [ 17.00676349958281, 52.399238165875452 ], [ 17.006916330585089, 52.399282657528033 ], [ 17.006962100656164, 52.39929809035683 ], [ 17.007068854038021, 52.3993339795623 ], [ 17.007218323262531, 52.399404138201504 ], [ 17.007503940224122, 52.399471375409128 ], [ 17.007629157598036, 52.399515220669336 ], [ 17.007970339846477, 52.399648153395717 ], [ 17.008275710285663, 52.3997502602897 ], [ 17.008324673375064, 52.399766645839144 ], [ 17.008905800587897, 52.399962442941948 ], [ 17.009299812260132, 52.400104446759499 ], [ 17.009934248731089, 52.400360769746285 ], [ 17.010050378482738, 52.40041714151193 ], [ 17.01013184764215, 52.400501981560943 ], [ 17.010180867324369, 52.400553085765921 ], [ 17.010229974767412, 52.400598974659985 ], [ 17.010411631025391, 52.400735060574888 ], [ 17.011088420048356, 52.400808603982156 ], [ 17.011070440695232, 52.400969661369565 ], [ 17.011449102171618, 52.401002117303719 ], [ 17.01149392768345, 52.401005929649699 ], [ 17.011657076173933, 52.401023965190838 ], [ 17.011805493791844, 52.401058932032079 ], [ 17.011982810179603, 52.401141245761067 ], [ 17.012034894519143, 52.401202744311213 ], [ 17.012083769130758, 52.40126041118878 ], [ 17.012119487331162, 52.401332697542927 ], [ 17.012160453225839, 52.401428907370928 ], [ 17.012163160367383, 52.40164670785942 ], [ 17.012125223013836, 52.401793848087046 ], [ 17.01208370810005, 52.401955139309294 ], [ 17.012000576222526, 52.402080472330134 ], [ 17.011986992165571, 52.402098052779095 ], [ 17.011936698583664, 52.402163495633573 ], [ 17.01182020512212, 52.402258945500968 ], [ 17.011624146017041, 52.402380759434777 ], [ 17.011448353790986, 52.402470444201363 ], [ 17.011356286144792, 52.402572061038768 ], [ 17.011305816026631, 52.402723127552463 ], [ 17.011263882229812, 52.402821720325036 ], [ 17.011214173110105, 52.40288393472111 ], [ 17.011122134591222, 52.402952182566075 ], [ 17.011002332661739, 52.40301321727415 ] ], [ [ 17.009355087076042, 52.399363337507175 ], [ 17.009258187029978, 52.399324108535673 ], [ 17.009162816617827, 52.399303163942548 ], [ 17.009081958625458, 52.399289749246392 ], [ 17.008947649573365, 52.399284518346398 ], [ 17.008898895650177, 52.399270025406217 ], [ 17.008865418950588, 52.39924607586137 ], [ 17.008862021897333, 52.399210490629137 ], [ 17.008884291753706, 52.399182893165957 ], [ 17.00891450487546, 52.399168291562319 ], [ 17.008982791872363, 52.399160447620545 ], [ 17.00907589066998, 52.399176317212451 ], [ 17.009391402257108, 52.399245852358113 ], [ 17.009678221703069, 52.399292957029424 ], [ 17.009768019913199, 52.399300495610568 ], [ 17.009812526844172, 52.399298276976353 ], [ 17.009853773077715, 52.399286829098124 ], [ 17.009907189277001, 52.399253279963133 ], [ 17.010002456102939, 52.399279798754804 ], [ 17.010136646306165, 52.399343220400695 ], [ 17.010245809794672, 52.399426907706584 ], [ 17.010344590039736, 52.399489732913899 ], [ 17.010436356874926, 52.399528694677159 ], [ 17.010551000890583, 52.399559226950714 ], [ 17.010744650521914, 52.399592078391478 ], [ 17.010978963019038, 52.399613381479085 ], [ 17.011264679514014, 52.399639326804099 ], [ 17.011319156755711, 52.399644291033844 ], [ 17.011548347379883, 52.399665057077428 ], [ 17.011506779312271, 52.39979810475986 ], [ 17.011449805206652, 52.399963093239123 ], [ 17.011421157179587, 52.400027910714343 ], [ 17.011266956949836, 52.400389680077282 ], [ 17.011150890230013, 52.400662056800655 ], [ 17.011135444928357, 52.400698134346349 ], [ 17.011088420048356, 52.400808603982156 ] ], [ [ 17.011370234968165, 52.403128330872839 ], [ 17.011002332661739, 52.40301321727415 ] ] ] } }
]
}
