{
"type": "FeatureCollection",
"name": "train_route",
"crs": { "type": "name", "properties": { "name": "urn:ogc:def:crs:OGC:1.3:CRS84" } },
"features": [
{ "type": "Feature", "properties": { "nazwa": "trasa" }, "geometry": { "type": "MultiLineString", "coordinates": [ [ [ 16.995743871358986, 52.400238608232932 ], [ 16.99534794943672, 52.400275875782242 ] ], [ [ 17.000745431281974, 52.402211258738475 ], [ 17.001200942214304, 52.402271131385945 ], [ 17.002261120384553, 52.402494130475723 ], [ 17.002451403226743, 52.402520282658969 ], [ 17.002579409979216, 52.402521996479457 ], [ 17.002805702347597, 52.402516016951473 ], [ 17.002986934660616, 52.402501630315264 ], [ 17.003185192636117, 52.402458658940205 ], [ 17.003495003699726, 52.402355150446105 ], [ 17.003572508048848, 52.402312656853752 ], [ 17.003780066300934, 52.402190690589649 ], [ 17.003971773241524, 52.402064768529158 ], [ 17.004096616523078, 52.401980170677398 ], [ 17.00417777388191, 52.401912104255132 ], [ 17.004210707086948, 52.401876412857057 ], [ 17.004239271323978, 52.401820230308203 ], [ 17.004240488094762, 52.40174766578523 ], [ 17.004239612485652, 52.401695393344731 ], [ 17.004238814356512, 52.401657693193378 ], [ 17.004217941084178, 52.401598876884457 ], [ 17.004170939376049, 52.401532513716944 ], [ 17.004109362485426, 52.401466533988092 ], [ 17.004018261904246, 52.401409589695824 ], [ 17.003957735157936, 52.401392017672528 ], [ 17.003319986682182, 52.401238772697745 ], [ 17.003079941636205, 52.401161951872602 ], [ 17.002788281346358, 52.401049359872303 ], [ 17.002450601927336, 52.40089758306388 ], [ 17.002184212787512, 52.400726952850725 ], [ 17.002110349794908, 52.400675875002307 ], [ 17.002350461314048, 52.400741365966574 ], [ 17.002919033092773, 52.400960905556026 ], [ 17.003295194225789, 52.401074655110008 ], [ 17.003626021864886, 52.401120988901468 ], [ 17.004024062991054, 52.401157303865958 ], [ 17.00432545855854, 52.401184610067723 ], [ 17.004685721855406, 52.401249966474957 ], [ 17.004942796977009, 52.401320955292476 ], [ 17.005567997232902, 52.401553670352158 ], [ 17.006279867801389, 52.401857011375348 ], [ 17.006461490953765, 52.401951278732902 ], [ 17.006752344695212, 52.402108190473456 ], [ 17.006995011763049, 52.402179291529215 ], [ 17.007456637320718, 52.402332065604725 ], [ 17.008108432499942, 52.402461419701552 ], [ 17.008782496689914, 52.402697189650965 ], [ 17.009450004310029, 52.402984023535353 ], [ 17.00956155833617, 52.403024578406473 ], [ 17.00978473449263, 52.403100921930381 ], [ 17.010043965917404, 52.40313748717017 ], [ 17.010264977561807, 52.403127986541044 ], [ 17.01052217795149, 52.403108391339494 ], [ 17.010895799638437, 52.4030440740435 ], [ 17.011002332661739, 52.40301321727415 ] ], [ [ 16.995743871358986, 52.400238608232932 ], [ 16.995716331233226, 52.400161688366893 ], [ 16.995587319377478, 52.399802780517426 ], [ 16.995329599659861, 52.399084879506887 ], [ 16.995302052772651, 52.399008139295404 ], [ 16.995255530092276, 52.398743452966805 ], [ 16.995222127521657, 52.398341823819884 ], [ 16.995201276891219, 52.398240642320019 ], [ 16.995180401901376, 52.398140000068025 ], [ 16.995102674069088, 52.397914989439677 ], [ 16.994901731414615, 52.397651010972822 ], [ 16.99475244508222, 52.397418489806249 ], [ 16.994713317446987, 52.397272925249389 ], [ 16.994716508866503, 52.397140940847308 ], [ 16.994750435477389, 52.397005610359578 ], [ 16.994870248692177, 52.396847182311255 ], [ 16.994978479476679, 52.396759343970395 ], [ 16.995028703537436, 52.396718551773368 ], [ 16.995263144937002, 52.396597056491345 ], [ 16.995491559551997, 52.39650469049198 ], [ 16.995852057847568, 52.396443706183469 ], [ 16.996766330701302, 52.39636872378393 ], [ 16.997004502273764, 52.3963757290635 ], [ 16.997274046872604, 52.396426978574333 ], [ 16.997639026684652, 52.396581931556057 ], [ 16.998385055142066, 52.396959294763221 ], [ 16.998558063954565, 52.397035169962024 ], [ 16.998820949006799, 52.397080996386997 ], [ 16.999034631350888, 52.397099635400131 ], [ 16.999249058030344, 52.397101826791321 ], [ 16.999749205709154, 52.397035099819746 ], [ 17.000000203718191, 52.396969910848874 ], [ 17.000161786548993, 52.396927853024408 ], [ 17.00028036960504, 52.3969067439753 ], [ 17.000387197115707, 52.396898477841063 ], [ 17.00049143530682, 52.396901950521851 ], [ 17.000597018043901, 52.396914710136329 ], [ 17.00083557563908, 52.396955533305864 ], [ 17.002851477848232, 52.39674946730235 ], [ 17.002973521207579, 52.396749371087409 ], [ 17.003073783480311, 52.396765996130213 ], [ 17.00316284321066, 52.396799521233774 ], [ 17.003625750631937, 52.39704614454751 ], [ 17.003847547522106, 52.39715215798411 ], [ 17.004014742424143, 52.39722675763668 ], [ 17.005246485456606, 52.397725069909406 ], [ 17.005875707410546, 52.397962079071569 ], [ 17.00614672497252, 52.398075664474675 ], [ 17.006202244471751, 52.398093330820444 ], [ 17.006329853562519, 52.398090536738245 ], [ 17.006468033998285, 52.398065254872051 ], [ 17.006630800613046, 52.398029504292943 ], [ 17.006849242752477, 52.398014480271108 ], [ 17.007011470493186, 52.398003724608074 ], [ 17.007098187828163, 52.39799799146671 ], [ 17.007217492841836, 52.39800000332859 ], [ 17.007312153890336, 52.398010504018131 ], [ 17.0074156252678, 52.398040850991421 ], [ 17.007486331286277, 52.398080449372948 ], [ 17.007551623004474, 52.398135786628835 ], [ 17.007597898137711, 52.398185676413341 ], [ 17.00765539115562, 52.398322731463274 ], [ 17.007670529327118, 52.398358784516567 ], [ 17.007745960841831, 52.398508914028845 ], [ 17.007814725453727, 52.398594890744093 ], [ 17.007890828663648, 52.398658325154543 ], [ 17.007993237113094, 52.398712309043027 ], [ 17.008110219042248, 52.398762670871953 ], [ 17.008237392528866, 52.39880223114497 ], [ 17.008380991699166, 52.398836221717382 ], [ 17.008601845308107, 52.398875471488331 ], [ 17.008694095003857, 52.398903649448258 ], [ 17.008901404433423, 52.398988991747906 ], [ 17.009038317206095, 52.399027815794568 ], [ 17.009624795772805, 52.399179716825394 ], [ 17.009907189277001, 52.399253279963133 ], [ 17.010002456102939, 52.399279798754804 ], [ 17.010136646306165, 52.399343220400695 ], [ 17.010245809794672, 52.399426907706584 ], [ 17.010344590039736, 52.399489732913899 ], [ 17.010436356874926, 52.399528694677159 ], [ 17.010551000890583, 52.399559226950714 ], [ 17.010744650521914, 52.399592078391478 ], [ 17.010978963019038, 52.399613381479085 ], [ 17.011264679514014, 52.399639326804099 ], [ 17.011319156755711, 52.399644291033844 ], [ 17.011548347379883, 52.399665057077428 ], [ 17.011506779312271, 52.39979810475986 ], [ 17.011449805206652, 52.399963093239123 ], [ 17.011421157179587, 52.400027910714343 ], [ 17.011266956949836, 52.400389680077282 ], [ 17.011150890230013, 52.400662056800655 ], [ 17.011135444928357, 52.400698134346349 ], [ 17.011088420048356, 52.400808603982156 ], [ 17.011070440695232, 52.400969661369565 ], [ 17.011449102171618, 52.401002117303719 ], [ 17.01149392768345, 52.401005929649699 ], [ 17.011657076173933, 52.401023965190838 ], [ 17.011805493791844, 52.401058932032079 ], [ 17.011982810179603, 52.401141245761067 ], [ 17.012034894519143, 52.401202744311213 ], [ 17.012083769130758, 52.40126041118878 ], [ 17.012119487331162, 52.401332697542927 ], [ 17.012160453225839, 52.401428907370928 ], [ 17.012163160367383, 52.40164670785942 ], [ 17.012125223013836, 52.401793848087046 ], [ 17.01208370810005, 52.401955139309294 ], [ 17.012000576222526, 52.402080472330134 ], [ 17.011986992165571, 52.402098052779095 ], [ 17.011936698583664, 52.402163495633573 ], [ 17.01182020512212, 52.402258945500968 ], [ 17.011624146017041, 52.402380759434777 ], [ 17.011448353790986, 52.402470444201363 ], [ 17.011356286144792, 52.402572061038768 ], [ 17.011305816026631, 52.402723127552463 ], [ 17.011263882229812, 52.402821720325036 ], [ 17.011214173110105, 52.40288393472111 ], [ 17.011122134591222, 52.402952182566075 ], [ 17.011002332661739, 52.40301321727415 ] ] ] } },
{ "type": "Feature", "properties": { "nazwa": "trasa" }, "geometry": { "type": "MultiLineString", "coordinates": [ ] } }
]
}
