{
"type": "FeatureCollection",
"name": "enclosures",
"crs": { "type": "name", "properties": { "name": "urn:ogc:def:crs:OGC:1.3:CRS84" } },
"features": [
{ "type": "Feature", "properties": { "fid": 0, "id": 0, "name": "Papużki", "connected": "YES", "comments": "Papużka nimfa i falista" }, "geometry": { "type": "Point", "coordinates": [ 16.994263537502423, 52.400222995571916 ] } },
{ "type": "Feature", "properties": { "fid": 1, "id": 1, "name": "Koza karłowata", "connected": "NO", "comments": null }, "geometry": { "type": "Point", "coordinates": [ 16.994206909656029, 52.400035859465468 ] } },
{ "type": "Feature", "properties": { "fid": 2, "id": 2, "name": "Alpaka", "connected": "NO", "comments": null }, "geometry": { "type": "Point", "coordinates": [ 16.994236762707974, 52.399896386737396 ] } },
{ "type": "Feature", "properties": { "fid": 3, "id": 3, "name": "Osioł domowy", "connected": "NO", "comments": null }, "geometry": { "type": "Point", "coordinates": [ 16.994265251725604, 52.399786979881675 ] } },
{ "type": "Feature", "properties": { "fid": 4, "id": 4, "name": "Kuc szetlandzki", "connected": "NO", "comments": null }, "geometry": { "type": "Point", "coordinates": [ 16.994445337537059, 52.399532649109226 ] } },
{ "type": "Feature", "properties": { "fid": 5, "id": 5, "name": "Kura domowa ozdobna", "connected": "NO", "comments": null }, "geometry": { "type": "Point", "coordinates": [ 16.99459060362318, 52.399797086083503 ] } },
{ "type": "Feature", "properties": { "fid": 6, "id": 6, "name": "Pawilon zwierząt nocnych", "connected": "YES", "comments": "mi.: wolatuszka, kot pustynny, lori kukang, nietoperz wampir, syczek" }, "geometry": { "type": "Point", "coordinates": [ 16.995193517855746, 52.399645868972272 ] } },
{ "type": "Feature", "properties": { "fid": 7, "id": 7, "name": "Leniuchowiec dwupalczasy (leniwiec)", "connected": "YES", "comments": "Łączony z bolitą południową" }, "geometry": { "type": "Point", "coordinates": [ 16.995356606274257, 52.399703968805213 ] } },
{ "type": "Feature", "properties": { "fid": 8, "id": 8, "name": "Bolitą południowa", "connected": "YES", "comments": "Połączone z leniwcem dwupalczasym" }, "geometry": { "type": "Point", "coordinates": [ 16.995344924022017, 52.39968092601999 ] } },
{ "type": "Feature", "properties": { "fid": 9, "id": 9, "name": "Lemur czerwonobrzuchy", "connected": "NO", "comments": null }, "geometry": { "type": "Point", "coordinates": [ 16.995424782137579, 52.399605786120112 ] } },
{ "type": "Feature", "properties": { "fid": 10, "id": 10, "name": "Lis srebrny", "connected": "NO", "comments": null }, "geometry": { "type": "Point", "coordinates": [ 16.995737541934059, 52.399571897054877 ] } },
{ "type": "Feature", "properties": { "fid": 11, "id": 11, "name": "Lemur katta", "connected": "NO", "comments": null }, "geometry": { "type": "Point", "coordinates": [ 16.995347787290306, 52.399419327125521 ] } },
{ "type": "Feature", "properties": { "fid": 12, "id": 12, "name": "Ssaki białolica", "connected": "NO", "comments": null }, "geometry": { "type": "Point", "coordinates": [ 16.995210529708586, 52.39932380150875 ] } },
{ "type": "Feature", "properties": { "fid": 13, "id": 13, "name": "Wari rudy", "connected": "NO", "comments": null }, "geometry": { "type": "Point", "coordinates": [ 16.995168489471148, 52.399232715240871 ] } },
{ "type": "Feature", "properties": { "fid": 14, "id": 14, "name": "Wari czarno-biały", "connected": "NO", "comments": null }, "geometry": { "type": "Point", "coordinates": [ 16.99511130411226, 52.399130107183872 ] } },
{ "type": "Feature", "properties": { "fid": 15, "id": 15, "name": "Orłosęp brodaty", "connected": "NO", "comments": "Zakaz zbliżania się do tego wolier" }, "geometry": { "type": "Point", "coordinates": [ 16.995544097678874, 52.398181811189879 ] } },
{ "type": "Feature", "properties": { "fid": 16, "id": 16, "name": "Flaming czerwonak chilijski", "connected": "NO", "comments": null }, "geometry": { "type": "Point", "coordinates": [ 16.99786224107384, 52.396614952857107 ] } },
{ "type": "Feature", "properties": { "fid": 17, "id": 17, "name": "Kob śniady", "connected": "YES", "comments": "Połączony z adaks pustynny" }, "geometry": { "type": "Point", "coordinates": [ 16.998386222672654, 52.397653899637447 ] } },
{ "type": "Feature", "properties": { "fid": 18, "id": 18, "name": "Adaks pustynny ", "connected": "YES", "comments": "Połączony z  Kob śniady " }, "geometry": { "type": "Point", "coordinates": [ 16.998212386757217, 52.397715583848964 ] } },
{ "type": "Feature", "properties": { "fid": 19, "id": 19, "name": "Struś", "connected": "YES", "comments": "Połączone z zebrą pręgowatą i gnu brunatne" }, "geometry": { "type": "Point", "coordinates": [ 16.997072648112049, 52.39744071703263 ] } },
{ "type": "Feature", "properties": { "fid": 20, "id": 20, "name": "Zebra pręgowata", "connected": "YES", "comments": "Połączone ze strusiem i gnu brunatne" }, "geometry": { "type": "Point", "coordinates": [ 16.996811132550192, 52.397505792393027 ] } },
{ "type": "Feature", "properties": { "fid": 21, "id": 21, "name": "Gnu brunatne ", "connected": "YES", "comments": "Połączone z zebrą pręgowatą i strusiem " }, "geometry": { "type": "Point", "coordinates": [ 16.996845795391934, 52.397351209093635 ] } },
{ "type": "Feature", "properties": { "fid": 22, "id": 22, "name": "Tapir anta", "connected": "YES", "comments": "Połączone z nandu szare" }, "geometry": { "type": "Point", "coordinates": [ 16.999423468718195, 52.397266066576094 ] } },
{ "type": "Feature", "properties": { "fid": 23, "id": 23, "name": "Nandu szare", "connected": "YES", "comments": "Połączone z tapir anta" }, "geometry": { "type": "Point", "coordinates": [ 16.999779153229372, 52.397206141195163 ] } },
{ "type": "Feature", "properties": { "fid": 24, "id": 24, "name": "Mara patagońska", "connected": "YES", "comments": "Połączkne z kapibarą (chyba)" }, "geometry": { "type": "Point", "coordinates": [ 17.000243077230401, 52.397016662671348 ] } },
{ "type": "Feature", "properties": { "fid": 25, "id": 25, "name": "Kapibara wielka", "connected": "YES", "comments": "Połączine z marą patagońską" }, "geometry": { "type": "Point", "coordinates": [ 17.000356538921377, 52.397024673590039 ] } },
{ "type": "Feature", "properties": { "fid": 26, "id": 26, "name": "Czepiak czarnoręki", "connected": "NO", "comments": null }, "geometry": { "type": "Point", "coordinates": [ 17.000745838611522, 52.397206924034407 ] } },
{ "type": "Feature", "properties": { "fid": 27, "id": 27, "name": "Ostronos białonosy", "connected": "NO", "comments": null }, "geometry": { "type": "Point", "coordinates": [ 17.001350451760928, 52.397671743153424 ] } },
{ "type": "Feature", "properties": { "fid": 28, "id": 28, "name": "Lemur katta", "connected": "NO", "comments": null }, "geometry": { "type": "Point", "coordinates": [ 17.002513322503766, 52.398356582212394 ] } },
{ "type": "Feature", "properties": { "fid": 29, "id": 29, "name": "Niedźwiedź brunatny ", "connected": "NO", "comments": null }, "geometry": { "type": "Point", "coordinates": [ 17.002730199690973, 52.39811268294352 ] } },
{ "type": "Feature", "properties": { "fid": 30, "id": 30, "name": "Szkockie bydło wyżynne", "connected": "NO", "comments": null }, "geometry": { "type": "Point", "coordinates": [ 17.002814706747888, 52.398563582795866 ] } },
{ "type": "Feature", "properties": { "fid": 31, "id": 31, "name": "Wilk", "connected": "NO", "comments": null }, "geometry": { "type": "Point", "coordinates": [ 17.004755010773582, 52.399246211370702 ] } },
{ "type": "Feature", "properties": { "fid": 32, "id": 32, "name": "Tygrys", "connected": "NO", "comments": null }, "geometry": { "type": "Point", "coordinates": [ 17.006580276502756, 52.399722522635422 ] } },
{ "type": "Feature", "properties": { "fid": 33, "id": 33, "name": "Słoniarnia", "connected": "NO", "comments": null }, "geometry": { "type": "Point", "coordinates": [ 17.006861659916449, 52.398737345066834 ] } },
{ "type": "Feature", "properties": { "fid": 34, "id": 34, "name": "Oryks południowy ", "connected": null, "comments": null }, "geometry": { "type": "Point", "coordinates": [ 17.009537091912705, 52.400450088071636 ] } },
{ "type": "Feature", "properties": { "fid": 35, "id": 35, "name": "Suseł moręgowany", "connected": "NO", "comments": null }, "geometry": { "type": "Point", "coordinates": [ 17.011464626626893, 52.400664571086025 ] } },
{ "type": "Feature", "properties": { "fid": 36, "id": 36, "name": "Żyrafa północna", "connected": "NO", "comments": null }, "geometry": { "type": "Point", "coordinates": [ 17.011595514688668, 52.399421204707721 ] } },
{ "type": "Feature", "properties": { "fid": 37, "id": 37, "name": "Nosorożec czarny", "connected": "NO", "comments": null }, "geometry": { "type": "Point", "coordinates": [ 17.010401368527017, 52.39919597702594 ] } },
{ "type": "Feature", "properties": { "fid": 38, "id": 38, "name": "Tamandua południowa", "connected": "NO", "comments": null }, "geometry": { "type": "Point", "coordinates": [ 17.011179805115496, 52.401108963841757 ] } },
{ "type": "Feature", "properties": { "fid": 39, "id": 38, "name": "Wielbłąd domowy", "connected": "NO", "comments": null }, "geometry": { "type": "Point", "coordinates": [ 17.012212270882319, 52.400980229639963 ] } },
{ "type": "Feature", "properties": { "fid": 40, "id": 40, "name": "Wikunia andyjska", "connected": "NO", "comments": null }, "geometry": { "type": "Point", "coordinates": [ 17.011801480627682, 52.401330781611257 ] } },
{ "type": "Feature", "properties": { "fid": 41, "id": 41, "name": "Lew", "connected": "NO", "comments": null }, "geometry": { "type": "Point", "coordinates": [ 17.01260601771461, 52.401526785867325 ] } },
{ "type": "Feature", "properties": { "fid": 42, "id": 42, "name": "Urson amerykański ", "connected": "NO", "comments": null }, "geometry": { "type": "Point", "coordinates": [ 17.011889604522779, 52.401787806221385 ] } },
{ "type": "Feature", "properties": { "fid": 43, "id": 43, "name": "Bizon amerykański ", "connected": "NO", "comments": null }, "geometry": { "type": "Point", "coordinates": [ 17.012206412279696, 52.402856113780345 ] } },
{ "type": "Feature", "properties": { "fid": 44, "id": 44, "name": "Makak japoński ", "connected": "NO", "comments": null }, "geometry": { "type": "Point", "coordinates": [ 17.006322609648578, 52.402118726652979 ] } },
{ "type": "Feature", "properties": { "fid": 45, "id": 45, "name": "Pelinkany ", "connected": "NO", "comments": null }, "geometry": { "type": "Point", "coordinates": [ 17.005134018211884, 52.400659348566009 ] } },
{ "type": "Feature", "properties": { "fid": 46, "id": 46, "name": "Kacyk ochrowy", "connected": "YES", "comments": "Połączone z puchoczub i sorkonos czarno-rdzawy" }, "geometry": { "type": "Point", "coordinates": [ 17.000476265348588, 52.399580514088285 ] } },
{ "type": "Feature", "properties": { "fid": 47, "id": 47, "name": "Puchoczub", "connected": "YES", "comments": "Połączone z kacyk ochrowy i sorkonos czarno-rdzawy " }, "geometry": { "type": "Point", "coordinates": [ 17.000481260988522, 52.399633507220869 ] } },
{ "type": "Feature", "properties": { "fid": 48, "id": 48, "name": "Sorkonos czarno-rdzawy ", "connected": "YES", "comments": "Połączone z kacyk ochrowy i puchoczub" }, "geometry": { "type": "Point", "coordinates": [ 17.000484394978741, 52.399692067622063 ] } },
{ "type": "Feature", "properties": { "fid": 49, "id": 49, "name": "Bereza białobroda", "connected": "YES", "comments": "Łącznie z koziorożec nubijski" }, "geometry": { "type": "Point", "coordinates": [ 16.999787551553375, 52.398820712054182 ] } },
{ "type": "Feature", "properties": { "fid": 50, "id": 50, "name": "Koziorożec nubijski ", "connected": "YES", "comments": "Połączone z gereza białobroda " }, "geometry": { "type": "Point", "coordinates": [ 16.999606950419672, 52.39866455044578 ] } },
{ "type": "Feature", "properties": { "fid": 51, "id": 51, "name": "Panda ruda", "connected": "NO", "comments": null }, "geometry": { "type": "Point", "coordinates": [ 17.000067075441056, 52.399911706385083 ] } },
{ "type": "Feature", "properties": { "fid": 52, "id": 52, "name": "Takin", "connected": "NO", "comments": null }, "geometry": { "type": "Point", "coordinates": [ 16.999770984083835, 52.400359575775973 ] } },
{ "type": "Feature", "properties": { "fid": 53, "id": 53, "name": "Nandinia palmowa", "connected": "NO", "comments": null }, "geometry": { "type": "Point", "coordinates": [ 16.999713779644246, 52.401056264896312 ] } },
{ "type": "Feature", "properties": { "fid": 54, "id": 54, "name": "Ocelot nadrzewny", "connected": "YES", "comments": null }, "geometry": { "type": "Point", "coordinates": [ 16.999828043102998, 52.400996953552486 ] } },
{ "type": "Feature", "properties": { "fid": 55, "id": 55, "name": "Mangusta karłowata", "connected": "NO", "comments": null }, "geometry": { "type": "Point", "coordinates": [ 16.999980419577362, 52.401001779573235 ] } },
{ "type": "Feature", "properties": { "fid": 56, "id": 56, "name": "Żeneta tygrysia", "connected": "NO", "comments": null }, "geometry": { "type": "Point", "coordinates": [ 16.999864446210275, 52.401067636345296 ] } },
{ "type": "Feature", "properties": { "fid": 57, "id": 57, "name": "Norka europejska", "connected": "NO", "comments": null }, "geometry": { "type": "Point", "coordinates": [ 17.000038833648116, 52.400967214822494 ] } },
{ "type": "Feature", "properties": { "fid": 58, "id": 58, "name": "Łasica syberyjska", "connected": "NO", "comments": null }, "geometry": { "type": "Point", "coordinates": [ 16.999955792334855, 52.400949029002646 ] } },
{ "type": "Feature", "properties": { "fid": 59, "id": 59, "name": "Binturong orientalny", "connected": "NO", "comments": null }, "geometry": { "type": "Point", "coordinates": [ 17.000033194477631, 52.401130940026924 ] } },
{ "type": "Feature", "properties": { "fid": 60, "id": 60, "name": "Otocjon wielkouchy ", "connected": "NO", "comments": null }, "geometry": { "type": "Point", "coordinates": [ 17.000162534520133, 52.40125018271614 ] } },
{ "type": "Feature", "properties": { "fid": 61, "id": 61, "name": "Jaguarundi", "connected": "NO", "comments": null }, "geometry": { "type": "Point", "coordinates": [ 17.000497715201131, 52.401342296378182 ] } },
{ "type": "Feature", "properties": { "fid": 62, "id": 62, "name": "Karakal stepowy", "connected": "NO", "comments": null }, "geometry": { "type": "Point", "coordinates": [ 17.000336061317565, 52.401405375827594 ] } },
{ "type": "Feature", "properties": { "fid": 63, "id": 63, "name": "Surykatka ", "connected": "NO", "comments": null }, "geometry": { "type": "Point", "coordinates": [ 17.000560829468906, 52.401616815595006 ] } },
{ "type": "Feature", "properties": { "fid": 64, "id": 64, "name": "Kotek amurski", "connected": "NO", "comments": null }, "geometry": { "type": "Point", "coordinates": [ 17.000373980441822, 52.401554060874084 ] } },
{ "type": "Feature", "properties": { "fid": 65, "id": 65, "name": "Manul", "connected": "NO", "comments": null }, "geometry": { "type": "Point", "coordinates": [ 17.000525359311595, 52.401697137813848 ] } },
{ "type": "Feature", "properties": { "fid": 66, "id": 66, "name": "Wszędobylskie gryzonie", "connected": "NO", "comments": "mi.: skoczki pustynne, szynszyle, pampasy, susły, mysz domowa, lemingi" }, "geometry": { "type": "Point", "coordinates": [ 17.001010940970872, 52.401537495754965 ] } },
{ "type": "Feature", "properties": { "fid": 67, "id": 67, "name": "Bielik amerykański ", "connected": "NO", "comments": null }, "geometry": { "type": "Point", "coordinates": [ 17.001632673823259, 52.401884913098719 ] } },
{ "type": "Feature", "properties": { "fid": 68, "id": 68, "name": "Pochacz", "connected": "NO", "comments": null }, "geometry": { "type": "Point", "coordinates": [ 17.002610249366175, 52.401998360100713 ] } },
{ "type": "Feature", "properties": { "fid": 69, "id": 69, "name": "Bielik", "connected": "NO", "comments": null }, "geometry": { "type": "Point", "coordinates": [ 17.002802660213103, 52.402040699869616 ] } },
{ "type": "Feature", "properties": { "fid": 70, "id": 70, "name": "Insektarium", "connected": "NO", "comments": "mi: ślimaki, pajęczaki, wije, chrząszcze " }, "geometry": { "type": "Point", "coordinates": [ 17.003821666666667, 52.401713333333333 ] } },
{ "type": "Feature", "properties": { "fid": 71, "id": 71, "name": "Żuraw białoszyi", "connected": "NO", "comments": null }, "geometry": { "type": "Point", "coordinates": [ 17.003744770941228, 52.402023580453047 ] } },
{ "type": "Feature", "properties": { "fid": 72, "id": 72, "name": "Płomykówka zwyczajna ", "connected": "NO", "comments": null }, "geometry": { "type": "Point", "coordinates": [ 17.003565892967131, 52.402152086216901 ] } },
{ "type": "Feature", "properties": { "fid": 73, "id": 73, "name": "Karakara falklandzka", "connected": "NO", "comments": null }, "geometry": { "type": "Point", "coordinates": [ 17.004102236331097, 52.402135004050741 ] } },
{ "type": "Feature", "properties": { "fid": 74, "id": 74, "name": "Sowa jarzębata", "connected": "NO", "comments": null }, "geometry": { "type": "Point", "coordinates": [ 17.004040797297947, 52.402174973254169 ] } },
{ "type": "Feature", "properties": { "fid": 75, "id": 75, "name": "Puszczyk uralski", "connected": "NO", "comments": null }, "geometry": { "type": "Point", "coordinates": [ 17.003685592636153, 52.40212548012925 ] } },
{ "type": "Feature", "properties": { "fid": 76, "id": 76, "name": "Puszczyk mszarny", "connected": "NO", "comments": null }, "geometry": { "type": "Point", "coordinates": [ 17.003461120436018, 52.402175993307253 ] } },
{ "type": "Feature", "properties": { "fid": 77, "id": 76, "name": "Żubr europejski", "connected": "NO", "comments": null }, "geometry": { "type": "Point", "coordinates": [ 17.003340105332921, 52.402614154191482 ] } },
{ "type": "Feature", "properties": { "fid": 78, "id": 77, "name": "Kondor wielki ", "connected": "NO", "comments": null }, "geometry": { "type": "Point", "coordinates": [ 17.002910846204948, 52.40197741513866 ] } },
{ "type": "Feature", "properties": { "fid": 79, "id": 78, "name": "Bielik amerykański ", "connected": null, "comments": null }, "geometry": { "type": "Point", "coordinates": [ 17.002987559272089, 52.401883811615498 ] } },
{ "type": "Feature", "properties": { "fid": 80, "id": 79, "name": "Bielik olbrzymi", "connected": "NO", "comments": null }, "geometry": { "type": "Point", "coordinates": [ 17.003010568795563, 52.401792201351789 ] } },
{ "type": "Feature", "properties": { "fid": 81, "id": 80, "name": "Pustułka zwyczajna", "connected": "NO", "comments": null }, "geometry": { "type": "Point", "coordinates": [ 17.002471370077487, 52.401972027462314 ] } },
{ "type": "Feature", "properties": { "fid": 82, "id": 81, "name": "Miły chiński ", "connected": "NO", "comments": null }, "geometry": { "type": "Point", "coordinates": [ 17.001112334361565, 52.402529414045837 ] } },
{ "type": "Feature", "properties": { "fid": 83, "id": 82, "name": "Ryś", "connected": "NO", "comments": null }, "geometry": { "type": "Point", "coordinates": [ 17.000187538737734, 52.401977794383562 ] } },
{ "type": "Feature", "properties": { "fid": 84, "id": 83, "name": "Nosorożec biały", "connected": "NO", "comments": null }, "geometry": { "type": "Point", "coordinates": [ 16.999005020820924, 52.402695493362842 ] } },
{ "type": "Feature", "properties": { "fid": 85, "id": 84, "name": "Wydra europejska", "connected": "NO", "comments": null }, "geometry": { "type": "Point", "coordinates": [ 16.998432317107465, 52.402577129331725 ] } },
{ "type": "Feature", "properties": { "fid": 86, "id": 85, "name": "Nilgau indyjski", "connected": "NO", "comments": null }, "geometry": { "type": "Point", "coordinates": [ 16.998820268811283, 52.402094069058002 ] } },
{ "type": "Feature", "properties": { "fid": 87, "id": 86, "name": "Antylopa szabloroga", "connected": "NO", "comments": null }, "geometry": { "type": "Point", "coordinates": [ 16.997966613153217, 52.401816035603289 ] } },
{ "type": "Feature", "properties": { "fid": 88, "id": 87, "name": "Sitatunga sawannowa", "connected": "NO", "comments": null }, "geometry": { "type": "Point", "coordinates": [ 16.996782507801456, 52.401710597239742 ] } },
{ "type": "Feature", "properties": { "fid": 89, "id": 88, "name": "Dzioborożec białodzioby", "connected": "NO", "comments": null }, "geometry": { "type": "Point", "coordinates": [ 16.995940986550899, 52.401263264287103 ] } },
{ "type": "Feature", "properties": { "fid": 90, "id": 89, "name": "Sambar sundajski", "connected": "NO", "comments": null }, "geometry": { "type": "Point", "coordinates": [ 16.995669174399424, 52.400726043956354 ] } },
{ "type": "Feature", "properties": { "fid": 91, "id": 90, "name": "Kanura patagońska", "connected": "NO", "comments": null }, "geometry": { "type": "Point", "coordinates": [ 16.995999197547143, 52.400461550619561 ] } },
{ "type": "Feature", "properties": { "fid": 92, "id": 91, "name": "Pekińczyk czerwonodzioby", "connected": "NO", "comments": null }, "geometry": { "type": "Point", "coordinates": [ 16.996059693423369, 52.400446857915291 ] } },
{ "type": "Feature", "properties": { "fid": 93, "id": 92, "name": "Mariana czerwononoga", "connected": "NO", "comments": null }, "geometry": { "type": "Point", "coordinates": [ 16.994935321600163, 52.400760019299994 ] } },
{ "type": "Feature", "properties": { "fid": 94, "id": 93, "name": "Czubacz rudy", "connected": "NO", "comments": null }, "geometry": { "type": "Point", "coordinates": [ 16.994943789974869, 52.40080582989561 ] } },
{ "type": "Feature", "properties": { "fid": 95, "id": 94, "name": "Olśniak himalajski", "connected": "NO", "comments": null }, "geometry": { "type": "Point", "coordinates": [ 16.994973467858401, 52.400957870680202 ] } },
{ "type": "Feature", "properties": { "fid": 96, "id": 95, "name": "Jutra czerwonodzioba", "connected": "NO", "comments": null }, "geometry": { "type": "Point", "coordinates": [ 16.995011676128033, 52.401025303363575 ] } },
{ "type": "Feature", "properties": { "fid": 97, "id": 96, "name": "Kiściec annamski", "connected": "NO", "comments": null }, "geometry": { "type": "Point", "coordinates": [ 16.995029473915224, 52.401048232167668 ] } },
{ "type": "Feature", "properties": { "fid": 98, "id": 97, "name": "Sójka iberyjska", "connected": "NO", "comments": null }, "geometry": { "type": "Point", "coordinates": [ 16.99505692372561, 52.401095734923956 ] } },
{ "type": "Feature", "properties": { "fid": 99, "id": 98, "name": "Trafiłam satyr", "connected": "NO", "comments": null }, "geometry": { "type": "Point", "coordinates": [ 16.995106459605307, 52.401294601558831 ] } },
{ "type": "Feature", "properties": { "fid": 100, "id": 99, "name": "Kiściec srebrzysty", "connected": "YES", "comments": null }, "geometry": { "type": "Point", "coordinates": [ 16.995184606127982, 52.401381218912732 ] } },
{ "type": "Feature", "properties": { "fid": 101, "id": 100, "name": "Bażant złocisty", "connected": "YES", "comments": null }, "geometry": { "type": "Point", "coordinates": [ 16.995204660887914, 52.401418369084666 ] } },
{ "type": "Feature", "properties": { "fid": 102, "id": 101, "name": "Paw indyjski ", "connected": "NO", "comments": null }, "geometry": { "type": "Point", "coordinates": [ 16.995225110443091, 52.401467341891696 ] } },
{ "type": "Feature", "properties": { "fid": 103, "id": 102, "name": "Uszak siwy", "connected": "NO", "comments": null }, "geometry": { "type": "Point", "coordinates": [ 16.995221710849044, 52.401522046911438 ] } },
{ "type": "Feature", "properties": { "fid": 104, "id": 103, "name": "Myszołów zwyczajny", "connected": "NO", "comments": null }, "geometry": { "type": "Point", "coordinates": [ 16.995289808430435, 52.401667602349811 ] } },
{ "type": "Feature", "properties": { "fid": 105, "id": 104, "name": "Świnia wisajska", "connected": "NO", "comments": null }, "geometry": { "type": "Point", "coordinates": [ 16.995139327876124, 52.402326072003909 ] } },
{ "type": "Feature", "properties": { "fid": 106, "id": 105, "name": "Kangur olbrzymi", "connected": "NO", "comments": null }, "geometry": { "type": "Point", "coordinates": [ 16.995350789547647, 52.401991299534373 ] } },
{ "type": "Feature", "properties": { "fid": 107, "id": 106, "name": "Sambar kropkowany", "connected": "NO", "comments": null }, "geometry": { "type": "Point", "coordinates": [ 16.995572963884058, 52.402352940762057 ] } },
{ "type": "Feature", "properties": { "fid": 108, "id": 107, "name": "Emu zwyczajne", "connected": "NO", "comments": null }, "geometry": { "type": "Point", "coordinates": [ 16.995878571719267, 52.4019735165868 ] } }
]
}
