{
"type": "FeatureCollection",
"name": "resting_places",
"crs": { "type": "name", "properties": { "name": "urn:ogc:def:crs:OGC:1.3:CRS84" } },
"features": [
{ "type": "Feature", "properties": { "fid": 0 }, "geometry": { "type": "Point", "coordinates": [ 16.994684374582263, 52.400309397383992 ] } },
{ "type": "Feature", "properties": { "fid": 1 }, "geometry": { "type": "Point", "coordinates": [ 16.994787162126467, 52.400301510675838 ] } },
{ "type": "Feature", "properties": { "fid": 2 }, "geometry": { "type": "Point", "coordinates": [ 16.994889124434707, 52.400293653190467 ] } },
{ "type": "Feature", "properties": { "fid": 3 }, "geometry": { "type": "Point", "coordinates": [ 16.995152816056301, 52.400312130388031 ] } },
{ "type": "Feature", "properties": { "fid": 4 }, "geometry": { "type": "Point", "coordinates": [ 16.995142959859244, 52.400277337007026 ] } },
{ "type": "Feature", "properties": { "fid": 5 }, "geometry": { "type": "Point", "coordinates": [ 16.995427794913947, 52.400317739238048 ] } },
{ "type": "Feature", "properties": { "fid": 6 }, "geometry": { "type": "Point", "coordinates": [ 16.995552088096449, 52.400307377314249 ] } },
{ "type": "Feature", "properties": { "fid": 7 }, "geometry": { "type": "Point", "coordinates": [ 16.995664057390357, 52.400296873101098 ] } },
{ "type": "Feature", "properties": { "fid": 8 }, "geometry": { "type": "Point", "coordinates": [ 16.995316387000425, 52.40032663495154 ] } },
{ "type": "Feature", "properties": { "fid": 9 }, "geometry": { "type": "Point", "coordinates": [ 16.995241923449708, 52.400333907726889 ] } },
{ "type": "Feature", "properties": { "fid": 10 }, "geometry": { "type": "Point", "coordinates": [ 16.994717115088921, 52.400377401356337 ] } },
{ "type": "Feature", "properties": { "fid": 11 }, "geometry": { "type": "Point", "coordinates": [ 16.994829629923768, 52.400369303516698 ] } },
{ "type": "Feature", "properties": { "fid": 12 }, "geometry": { "type": "Point", "coordinates": [ 16.995294931295923, 52.400201469429597 ] } },
{ "type": "Feature", "properties": { "fid": 13 }, "geometry": { "type": "Point", "coordinates": [ 16.995055, 52.399515 ] } },
{ "type": "Feature", "properties": { "fid": 14 }, "geometry": { "type": "Point", "coordinates": [ 16.9943804246879, 52.40029797828592 ] } },
{ "type": "Feature", "properties": { "fid": 15 }, "geometry": { "type": "Point", "coordinates": [ 16.994947845562383, 52.40035859337226 ] } },
{ "type": "Feature", "properties": { "fid": 16 }, "geometry": { "type": "Point", "coordinates": [ 16.99567, 52.399643333333344 ] } },
{ "type": "Feature", "properties": { "fid": 17 }, "geometry": { "type": "Point", "coordinates": [ 16.995568333333331, 52.399463333333337 ] } },
{ "type": "Feature", "properties": { "fid": 18 }, "geometry": { "type": "Point", "coordinates": [ 16.997058333333332, 52.396423333333331 ] } },
{ "type": "Feature", "properties": { "fid": 19 }, "geometry": { "type": "Point", "coordinates": [ 16.997823333333333, 52.396703333333349 ] } },
{ "type": "Feature", "properties": { "fid": 20 }, "geometry": { "type": "Point", "coordinates": [ 16.998828053227765, 52.397250068074065 ] } },
{ "type": "Feature", "properties": { "fid": 21 }, "geometry": { "type": "Point", "coordinates": [ 16.996143333333336, 52.3964 ] } },
{ "type": "Feature", "properties": { "fid": 22 }, "geometry": { "type": "Point", "coordinates": [ 16.999035808544512, 52.397475859760306 ] } },
{ "type": "Feature", "properties": { "fid": 23 }, "geometry": { "type": "Point", "coordinates": [ 16.999112679496129, 52.397587634207582 ] } },
{ "type": "Feature", "properties": { "fid": 24 }, "geometry": { "type": "Point", "coordinates": [ 16.99990321849776, 52.396973246374124 ] } },
{ "type": "Feature", "properties": { "fid": 25 }, "geometry": { "type": "Point", "coordinates": [ 17.001139450457611, 52.397264641661707 ] } },
{ "type": "Feature", "properties": { "fid": 26 }, "geometry": { "type": "Point", "coordinates": [ 17.00144, 52.39759 ] } },
{ "type": "Feature", "properties": { "fid": 27 }, "geometry": { "type": "Point", "coordinates": [ 17.00225, 52.39822166666665 ] } },
{ "type": "Feature", "properties": { "fid": 28 }, "geometry": { "type": "Point", "coordinates": [ 17.002341666666666, 52.39826166666667 ] } },
{ "type": "Feature", "properties": { "fid": 29 }, "geometry": { "type": "Point", "coordinates": [ 17.002741666666669, 52.397596666666693 ] } },
{ "type": "Feature", "properties": { "fid": 30 }, "geometry": { "type": "Point", "coordinates": [ 17.00274, 52.397611666666677 ] } },
{ "type": "Feature", "properties": { "fid": 31 }, "geometry": { "type": "Point", "coordinates": [ 17.003158333333332, 52.399108333333331 ] } },
{ "type": "Feature", "properties": { "fid": 32 }, "geometry": { "type": "Point", "coordinates": [ 17.002621666666666, 52.399086666666683 ] } },
{ "type": "Feature", "properties": { "fid": 33 }, "geometry": { "type": "Point", "coordinates": [ 17.002506666666665, 52.39909 ] } },
{ "type": "Feature", "properties": { "fid": 34 }, "geometry": { "type": "Point", "coordinates": [ 17.002483333333331, 52.399143333333335 ] } },
{ "type": "Feature", "properties": { "fid": 35 }, "geometry": { "type": "Point", "coordinates": [ 17.002373333333331, 52.399226666666664 ] } },
{ "type": "Feature", "properties": { "fid": 36 }, "geometry": { "type": "Point", "coordinates": [ 17.00226, 52.399305 ] } },
{ "type": "Feature", "properties": { "fid": 37 }, "geometry": { "type": "Point", "coordinates": [ 17.002205, 52.399268333333346 ] } },
{ "type": "Feature", "properties": { "fid": 38 }, "geometry": { "type": "Point", "coordinates": [ 17.002096666666667, 52.399328333333351 ] } },
{ "type": "Feature", "properties": { "fid": 39 }, "geometry": { "type": "Point", "coordinates": [ 17.002021666666668, 52.399436666666666 ] } },
{ "type": "Feature", "properties": { "fid": 40 }, "geometry": { "type": "Point", "coordinates": [ 17.001903333333335, 52.399436666666681 ] } },
{ "type": "Feature", "properties": { "fid": 41 }, "geometry": { "type": "Point", "coordinates": [ 17.001893333333332, 52.399516666666656 ] } },
{ "type": "Feature", "properties": { "fid": 42 }, "geometry": { "type": "Point", "coordinates": [ 17.001778333333334, 52.399513333333346 ] } },
{ "type": "Feature", "properties": { "fid": 43 }, "geometry": { "type": "Point", "coordinates": [ 17.001538333333333, 52.399646666666662 ] } },
{ "type": "Feature", "properties": { "fid": 44 }, "geometry": { "type": "Point", "coordinates": [ 17.000001666666666, 52.398625 ] } },
{ "type": "Feature", "properties": { "fid": 45 }, "geometry": { "type": "Point", "coordinates": [ 16.999698333333335, 52.399643333333344 ] } },
{ "type": "Feature", "properties": { "fid": 46 }, "geometry": { "type": "Point", "coordinates": [ 16.999708333333334, 52.399696666666649 ] } },
{ "type": "Feature", "properties": { "fid": 47 }, "geometry": { "type": "Point", "coordinates": [ 16.9994, 52.40014 ] } },
{ "type": "Feature", "properties": { "fid": 48 }, "geometry": { "type": "Point", "coordinates": [ 17.000293333333332, 52.400893333333343 ] } },
{ "type": "Feature", "properties": { "fid": 49 }, "geometry": { "type": "Point", "coordinates": [ 17.000118333333333, 52.401046666666666 ] } },
{ "type": "Feature", "properties": { "fid": 50 }, "geometry": { "type": "Point", "coordinates": [ 17.000161666666667, 52.401141666666682 ] } },
{ "type": "Feature", "properties": { "fid": 51 }, "geometry": { "type": "Point", "coordinates": [ 17.000388333333333, 52.401303333333331 ] } },
{ "type": "Feature", "properties": { "fid": 52 }, "geometry": { "type": "Point", "coordinates": [ 17.000458333333331, 52.40142666666668 ] } },
{ "type": "Feature", "properties": { "fid": 53 }, "geometry": { "type": "Point", "coordinates": [ 17.000796666666666, 52.401598333333325 ] } },
{ "type": "Feature", "properties": { "fid": 54 }, "geometry": { "type": "Point", "coordinates": [ 17.00172601895536, 52.402014932409699 ] } },
{ "type": "Feature", "properties": { "fid": 55 }, "geometry": { "type": "Point", "coordinates": [ 17.003100135604964, 52.40203223592929 ] } },
{ "type": "Feature", "properties": { "fid": 56 }, "geometry": { "type": "Point", "coordinates": [ 17.003173363135609, 52.401936094240284 ] } },
{ "type": "Feature", "properties": { "fid": 57 }, "geometry": { "type": "Point", "coordinates": [ 17.002835, 52.400925 ] } },
{ "type": "Feature", "properties": { "fid": 58 }, "geometry": { "type": "Point", "coordinates": [ 17.003331666666668, 52.401121666666668 ] } },
{ "type": "Feature", "properties": { "fid": 59 }, "geometry": { "type": "Point", "coordinates": [ 17.011412992760043, 52.400186288108117 ] } },
{ "type": "Feature", "properties": { "fid": 60 }, "geometry": { "type": "Point", "coordinates": [ 17.011141933505339, 52.399576485765742 ] } },
{ "type": "Feature", "properties": { "fid": 61 }, "geometry": { "type": "Point", "coordinates": [ 17.011158345619279, 52.399536778217062 ] } },
{ "type": "Feature", "properties": { "fid": 62 }, "geometry": { "type": "Point", "coordinates": [ 17.011199387119934, 52.399506051677747 ] } },
{ "type": "Feature", "properties": { "fid": 63 }, "geometry": { "type": "Point", "coordinates": [ 17.010975408971927, 52.39952436384295 ] } },
{ "type": "Feature", "properties": { "fid": 64 }, "geometry": { "type": "Point", "coordinates": [ 17.010973106983112, 52.399549020379254 ] } },
{ "type": "Feature", "properties": { "fid": 65 }, "geometry": { "type": "Point", "coordinates": [ 17.010967112960078, 52.399572021758253 ] } },
{ "type": "Feature", "properties": { "fid": 66 }, "geometry": { "type": "Point", "coordinates": [ 17.008541666666666, 52.399921666666657 ] } },
{ "type": "Feature", "properties": { "fid": 67 }, "geometry": { "type": "Point", "coordinates": [ 17.008508333333335, 52.3999 ] } },
{ "type": "Feature", "properties": { "fid": 68 }, "geometry": { "type": "Point", "coordinates": [ 17.008569669460012, 52.399943865962044 ] } },
{ "type": "Feature", "properties": { "fid": 69 }, "geometry": { "type": "Point", "coordinates": [ 17.008405, 52.399816666666659 ] } },
{ "type": "Feature", "properties": { "fid": 70 }, "geometry": { "type": "Point", "coordinates": [ 17.008366666666667, 52.399806666666677 ] } },
{ "type": "Feature", "properties": { "fid": 71 }, "geometry": { "type": "Point", "coordinates": [ 17.008246563079076, 52.399778797609358 ] } },
{ "type": "Feature", "properties": { "fid": 72 }, "geometry": { "type": "Point", "coordinates": [ 17.00808, 52.399768333333341 ] } },
{ "type": "Feature", "properties": { "fid": 73 }, "geometry": { "type": "Point", "coordinates": [ 17.007956666666665, 52.39971833333334 ] } },
{ "type": "Feature", "properties": { "fid": 74 }, "geometry": { "type": "Point", "coordinates": [ 17.00747314659629, 52.399481606558957 ] } },
{ "type": "Feature", "properties": { "fid": 75 }, "geometry": { "type": "Point", "coordinates": [ 17.007332629319258, 52.399449244003542 ] } },
{ "type": "Feature", "properties": { "fid": 76 }, "geometry": { "type": "Point", "coordinates": [ 17.007265, 52.399403333333339 ] } },
{ "type": "Feature", "properties": { "fid": 77 }, "geometry": { "type": "Point", "coordinates": [ 17.007116666666665, 52.399415 ] } },
{ "type": "Feature", "properties": { "fid": 78 }, "geometry": { "type": "Point", "coordinates": [ 17.007128333333334, 52.399408333333334 ] } },
{ "type": "Feature", "properties": { "fid": 79 }, "geometry": { "type": "Point", "coordinates": [ 17.006938333333334, 52.399333333333338 ] } },
{ "type": "Feature", "properties": { "fid": 80 }, "geometry": { "type": "Point", "coordinates": [ 17.006940373474087, 52.399316666666671 ] } },
{ "type": "Feature", "properties": { "fid": 81 }, "geometry": { "type": "Point", "coordinates": [ 17.006915429752336, 52.399314216393101 ] } },
{ "type": "Feature", "properties": { "fid": 82 }, "geometry": { "type": "Point", "coordinates": [ 17.006373333333332, 52.399185 ] } },
{ "type": "Feature", "properties": { "fid": 83 }, "geometry": { "type": "Point", "coordinates": [ 17.006315, 52.399201666666684 ] } },
{ "type": "Feature", "properties": { "fid": 84 }, "geometry": { "type": "Point", "coordinates": [ 17.00632, 52.399243333333331 ] } },
{ "type": "Feature", "properties": { "fid": 85 }, "geometry": { "type": "Point", "coordinates": [ 17.00628166666667, 52.399295 ] } },
{ "type": "Feature", "properties": { "fid": 86 }, "geometry": { "type": "Point", "coordinates": [ 17.004116666666668, 52.402033333333343 ] } },
{ "type": "Feature", "properties": { "fid": 87 }, "geometry": { "type": "Point", "coordinates": [ 17.003981666666668, 52.402073333333341 ] } },
{ "type": "Feature", "properties": { "fid": 88 }, "geometry": { "type": "Point", "coordinates": [ 17.003984350793885, 52.402129556642386 ] } },
{ "type": "Feature", "properties": { "fid": 89 }, "geometry": { "type": "Point", "coordinates": [ 17.003836666666665, 52.402001666666685 ] } },
{ "type": "Feature", "properties": { "fid": 90 }, "geometry": { "type": "Point", "coordinates": [ 17.003615, 52.402185 ] } },
{ "type": "Feature", "properties": { "fid": 91 }, "geometry": { "type": "Point", "coordinates": [ 17.003483333333335, 52.402318333333341 ] } },
{ "type": "Feature", "properties": { "fid": 92 }, "geometry": { "type": "Point", "coordinates": [ 17.003326666666666, 52.402466666666676 ] } },
{ "type": "Feature", "properties": { "fid": 93 }, "geometry": { "type": "Point", "coordinates": [ 17.001415, 52.402341666666679 ] } },
{ "type": "Feature", "properties": { "fid": 94 }, "geometry": { "type": "Point", "coordinates": [ 17.0003, 52.402131666666676 ] } },
{ "type": "Feature", "properties": { "fid": 95 }, "geometry": { "type": "Point", "coordinates": [ 17.00014, 52.402148333333315 ] } },
{ "type": "Feature", "properties": { "fid": 96 }, "geometry": { "type": "Point", "coordinates": [ 16.999563333333334, 52.4022 ] } },
{ "type": "Feature", "properties": { "fid": 97 }, "geometry": { "type": "Point", "coordinates": [ 16.999488002793345, 52.402306863477982 ] } },
{ "type": "Feature", "properties": { "fid": 98 }, "geometry": { "type": "Point", "coordinates": [ 16.999063333333332, 52.402441666666661 ] } },
{ "type": "Feature", "properties": { "fid": 99 }, "geometry": { "type": "Point", "coordinates": [ 16.998888333333333, 52.40241 ] } },
{ "type": "Feature", "properties": { "fid": 100 }, "geometry": { "type": "Point", "coordinates": [ 16.99877360047882, 52.402396460234691 ] } },
{ "type": "Feature", "properties": { "fid": 101 }, "geometry": { "type": "Point", "coordinates": [ 16.999083333333331, 52.402334467580964 ] } },
{ "type": "Feature", "properties": { "fid": 102 }, "geometry": { "type": "Point", "coordinates": [ 16.998955, 52.402281666666674 ] } },
{ "type": "Feature", "properties": { "fid": 103 }, "geometry": { "type": "Point", "coordinates": [ 16.998751666666667, 52.402278333333335 ] } },
{ "type": "Feature", "properties": { "fid": 104 }, "geometry": { "type": "Point", "coordinates": [ 16.997888053227765, 52.402102422818167 ] } },
{ "type": "Feature", "properties": { "fid": 105 }, "geometry": { "type": "Point", "coordinates": [ 16.99754, 52.402016666666661 ] } },
{ "type": "Feature", "properties": { "fid": 106 }, "geometry": { "type": "Point", "coordinates": [ 16.995473333333333, 52.402161666666679 ] } },
{ "type": "Feature", "properties": { "fid": 107 }, "geometry": { "type": "Point", "coordinates": [ 16.995161666666668, 52.401088333333341 ] } },
{ "type": "Feature", "properties": { "fid": 108 }, "geometry": { "type": "Point", "coordinates": [ 16.995956666666665, 52.40069 ] } },
{ "type": "Feature", "properties": { "fid": 109 }, "geometry": { "type": "Point", "coordinates": [ 16.99607, 52.40094 ] } }
]
}
