{
"type": "FeatureCollection",
"name": "restaurants",
"crs": { "type": "name", "properties": { "name": "urn:ogc:def:crs:OGC:1.3:CRS84" } },
"features": [
{ "type": "Feature", "properties": { "fid": 0, "id": 0, "name": "LODY KAWA GOFRY GRANITA" }, "geometry": { "type": "Point", "coordinates": [ 16.994685755393206, 52.400383516630171 ] } },
{ "type": "Feature", "properties": { "fid": 1, "id": 1, "name": "Budka gastronomiczna" }, "geometry": { "type": "Point", "coordinates": [ 16.994634420706856, 52.396845799011267 ] } },
{ "type": "Feature", "properties": { "fid": 2, "id": 2, "name": "Budka gastronomiczna " }, "geometry": { "type": "Point", "coordinates": [ 16.996909515437082, 52.39627634662007 ] } },
{ "type": "Feature", "properties": { "fid": 3, "id": 3, "name": "Budka gastronomiczna " }, "geometry": { "type": "Point", "coordinates": [ 17.006440467601905, 52.398838040621037 ] } },
{ "type": "Feature", "properties": { "fid": 4, "id": 4, "name": "Budka gastronomiczna " }, "geometry": { "type": "Point", "coordinates": [ 17.006955305856582, 52.399403297891993 ] } },
{ "type": "Feature", "properties": { "fid": 5, "id": 5, "name": "Restauracja Kongo" }, "geometry": { "type": "Point", "coordinates": [ 17.009572155536393, 52.399494669670176 ] } },
{ "type": "Feature", "properties": { "fid": 6, "id": 6, "name": "Budka z lodami" }, "geometry": { "type": "Point", "coordinates": [ 17.009762764314893, 52.399644724026729 ] } },
{ "type": "Feature", "properties": { "fid": 7, "id": 7, "name": "Budka gastronomiczna " }, "geometry": { "type": "Point", "coordinates": [ 17.010920529603482, 52.399471039228516 ] } },
{ "type": "Feature", "properties": { "fid": 8, "id": 8, "name": "Budka gastronomiczna " }, "geometry": { "type": "Point", "coordinates": [ 17.006279458384796, 52.401721400155452 ] } },
{ "type": "Feature", "properties": { "fid": 9, "id": 9, "name": "Budka gastronomiczna" }, "geometry": { "type": "Point", "coordinates": [ 17.000872390783123, 52.399696404853927 ] } },
{ "type": "Feature", "properties": { "fid": 10, "id": 10, "name": "LODY ŚWIDERKI GOFRY" }, "geometry": { "type": "Point", "coordinates": [ 17.003264303898661, 52.402318368592049 ] } },
{ "type": "Feature", "properties": { "fid": 11, "id": 11, "name": "Bistro miś " }, "geometry": { "type": "Point", "coordinates": [ 16.996858146110128, 52.402174269112585 ] } }
]
}
